ONEWEB-0379             
1 49305U 21090AC  25154.58022221  .00000203  00000+0  51355-3 0  9998
2 49305  87.9043   5.0262 0001678  86.6956 273.4366 13.14501475177828
ONEWEB-0380             
1 49306U 21090AD  25154.55605611  .00000046  00000+0  82116-4 0  9991
2 49306  87.9232  20.2474 0001991  78.7027 281.4330 13.19727036176481
ONEWEB-0381             
1 49307U 21090AE  25154.52589058 -.00000010  00000+0 -55518-4 0  9994
2 49307  87.9261 349.8523 0001862  80.2624 279.8719 13.20771288179842
ONEWEB-0382             
1 49308U 21090AF  25154.51325592  .00000010  00000+0 -72305-5 0  9998
2 49308  87.9262 349.8493 0001651  78.7602 281.3716 13.20771295179836
ONEWEB-0383             
1 49309U 21090AG  25154.57388763  .00000237  00000+0  60480-3 0  9993
2 49309  87.9040   5.0082 0001622  85.6497 274.4818 13.14503412177856
ONEWEB-0384             
1 49310U 21090AH  25154.58523662  .00000028  00000+0  36333-4 0  9994
2 49310  87.9264 349.8517 0001484  74.2337 285.8960 13.20784407179859
ONEWEB-0385             
1 49311U 21090AJ  25154.58113008  .00000065  00000+0  12750-3 0  9991
2 49311  87.9262 349.8533 0001757  85.6434 274.4900 13.20771052179820
ONEWEB-0386             
1 49312U 21090AK  25154.52272327 -.00000047  00000+0 -14696-3 0  9999
2 49312  87.9256 349.8362 0001592  82.0705 278.0609 13.20771034179830
